[{"OBJECT_NAME":"SWIFT","OBJECT_ID":"2004-047A","EPOCH":"2026-03-09T13:05:14.777952","MEAN_MOTION":15.59259837,"ECCENTRICITY":0.00038418,"INCLINATION":20.5527,"RA_OF_ASC_NODE":228.3012,"ARG_OF_PERICENTER":29.2697,"MEAN_ANOMALY":330.7962,"EPHEMERIS_TYPE":0,"CLASSIFICATION_TYPE":"U","NORAD_CAT_ID":28485,"ELEMENT_SET_NO":999,"REV_AT_EPOCH":17124,"BSTAR":0.00054013449,"MEAN_MOTION_DOT":0.00045338,"MEAN_MOTION_DDOT":0},{"OBJECT_NAME":"STARLINK-36627","OBJECT_ID":"2026-020U","EPOCH":"2026-03-09T22:00:01.999584","MEAN_MOTION":15.68605288,"ECCENTRICITY":0.00014613,"INCLINATION":42.9998,"RA_OF_ASC_NODE":140.6895,"ARG_OF_PERICENTER":272.8635,"MEAN_ANOMALY":68.5573,"EPHEMERIS_TYPE":0,"CLASSIFICATION_TYPE":"U","NORAD_CAT_ID":67635,"ELEMENT_SET_NO":999,"REV_AT_EPOCH":604,"BSTAR":-0.018966671,"MEAN_MOTION_DOT":-0.01959305,"MEAN_MOTION_DDOT":0}]
